{
  "type": "FeatureCollection",
  "features": [
    {
      "type": "Feature",
      "properties": {
        "norad_id": 30922,
        "name": "FENGYUN 1C DEB",
        "group": "fengyun-1c-debris",
        "lat": -15.958576138522194,
        "lon": 1.8373152684884164,
        "alt_km": 836.6878589716489,
        "timestamp": "2025-12-09T09:46:47.925396+00:00",
        "meta_object_name": "FENGYUN 1C DEB",
        "meta_object_id": "1999-025AZL",
        "meta_epoch": "2025-12-09T00:00:13.387680",
        "meta_mean_motion": 14.1744403,
        "meta_eccentricity": 0.00147028,
        "meta_inclination": 98.6404,
        "meta_ra_of_asc_node": 358.9492,
        "meta_arg_of_pericenter": 64.039,
        "meta_mean_anomaly": 2.6698,
        "meta_ephemeris_type": 0,
        "meta_classification_type": "U",
        "meta_norad_cat_id": 30922,
        "meta_element_set_no": 999,
        "meta_rev_at_epoch": 96511,
        "meta_bstar": 0.00089445467,
        "meta_mean_motion_dot": 1.772e-05,
        "meta_mean_motion_ddot": 0,
        "tle_line1": "1 30922U 99025AZL 25343.00015495  .00001772  00000+0  89445-3 0  9991",
        "tle_line2": "2 30922  98.6404 358.9492 0014702  64.0390   2.6698 14.17444030965116"
      },
      "geometry": {
        "type": "Point",
        "coordinates": [
          1.8373152684884164,
          -15.958576138522194
        ]
      }
    },
    {
      "type": "Feature",
      "properties": {
        "norad_id": 30925,
        "name": "FENGYUN 1C DEB",
        "group": "fengyun-1c-debris",
        "lat": 16.87738030829114,
        "lon": -62.23221747466496,
        "alt_km": 746.5581909618941,
        "timestamp": "2025-12-09T09:46:47.925406+00:00",
        "meta_object_name": "FENGYUN 1C DEB",
        "meta_object_id": "1999-025AZP",
        "meta_epoch": "2025-12-08T20:25:26.145120",
        "meta_mean_motion": 14.43023313,
        "meta_eccentricity": 0.00330437,
        "meta_inclination": 98.8832,
        "meta_ra_of_asc_node": 114.4683,
        "meta_arg_of_pericenter": 248.7234,
        "meta_mean_anomaly": 265.1315,
        "meta_ephemeris_type": 0,
        "meta_classification_type": "U",
        "meta_norad_cat_id": 30925,
        "meta_element_set_no": 999,
        "meta_rev_at_epoch": 97016,
        "meta_bstar": 0.0039068019,
        "meta_mean_motion_dot": 0.00013151,
        "meta_mean_motion_ddot": 0,
        "tle_line1": "1 30925U 99025AZP 25342.85099705  .00013151  00000+0  39068-2 0  9991",
        "tle_line2": "2 30925  98.8832 114.4683 0033043 248.7234 265.1315 14.43023313970169"
      },
      "geometry": {
        "type": "Point",
        "coordinates": [
          -62.23221747466496,
          16.87738030829114
        ]
      }
    },
    {
      "type": "Feature",
      "properties": {
        "norad_id": 30926,
        "name": "FENGYUN 1C DEB",
        "group": "fengyun-1c-debris",
        "lat": 59.59989359338828,
        "lon": 119.0866947249363,
        "alt_km": 585.8888330624022,
        "timestamp": "2025-12-09T09:46:47.925417+00:00",
        "meta_object_name": "FENGYUN 1C DEB",
        "meta_object_id": "1999-025AZQ",
        "meta_epoch": "2025-12-08T07:27:37.146240",
        "meta_mean_motion": 14.89258626,
        "meta_eccentricity": 0.01662446,
        "meta_inclination": 98.802,
        "meta_ra_of_asc_node": 282.5538,
        "meta_arg_of_pericenter": 35.937,
        "meta_mean_anomaly": 325.289,
        "meta_ephemeris_type": 0,
        "meta_classification_type": "U",
        "meta_norad_cat_id": 30926,
        "meta_element_set_no": 999,
        "meta_rev_at_epoch": 701,
        "meta_bstar": 0.00073198391,
        "meta_mean_motion_dot": 8.918e-05,
        "meta_mean_motion_ddot": 0,
        "tle_line1": "1 30926U 99025AZQ 25342.31084660  .00008918  00000+0  73198-3 0  9995",
        "tle_line2": "2 30926  98.8020 282.5538 0166244  35.9370 325.2890 14.89258626  7010"
      },
      "geometry": {
        "type": "Point",
        "coordinates": [
          119.0866947249363,
          59.59989359338828
        ]
      }
    },
    {
      "type": "Feature",
      "properties": {
        "norad_id": 30927,
        "name": "FENGYUN 1C DEB",
        "group": "fengyun-1c-debris",
        "lat": -16.705800826330268,
        "lon": -138.96716974606338,
        "alt_km": 939.2916130712729,
        "timestamp": "2025-12-09T09:46:47.925427+00:00",
        "meta_object_name": "FENGYUN 1C DEB",
        "meta_object_id": "1999-025AZR",
        "meta_epoch": "2025-12-02T23:27:28.547136",
        "meta_mean_motion": 14.08892452,
        "meta_eccentricity": 0.00987852,
        "meta_inclination": 99.1836,
        "meta_ra_of_asc_node": 37.2663,
        "meta_arg_of_pericenter": 33.6709,
        "meta_mean_anomaly": 327.0684,
        "meta_ephemeris_type": 0,
        "meta_classification_type": "U",
        "meta_norad_cat_id": 30927,
        "meta_element_set_no": 999,
        "meta_rev_at_epoch": 95546,
        "meta_bstar": 0.0020438482,
        "meta_mean_motion_dot": 3.651e-05,
        "meta_mean_motion_ddot": 0,
        "tle_line1": "1 30927U 99025AZR 25336.97741374  .00003651  00000+0  20438-2 0  9990",
        "tle_line2": "2 30927  99.1836  37.2663 0098785  33.6709 327.0684 14.08892452955463"
      },
      "geometry": {
        "type": "Point",
        "coordinates": [
          -138.96716974606338,
          -16.705800826330268
        ]
      }
    },
    {
      "type": "Feature",
      "properties": {
        "norad_id": 30928,
        "name": "FENGYUN 1C DEB",
        "group": "fengyun-1c-debris",
        "lat": 19.928690892200436,
        "lon": -103.55781505251379,
        "alt_km": 1332.851271846038,
        "timestamp": "2025-12-09T09:46:47.925438+00:00",
        "meta_object_name": "FENGYUN 1C DEB",
        "meta_object_id": "1999-025AZS",
        "meta_epoch": "2025-12-08T05:53:27.603168",
        "meta_mean_motion": 13.22232123,
        "meta_eccentricity": 0.04506095,
        "meta_inclination": 98.8831,
        "meta_ra_of_asc_node": 72.2004,
        "meta_arg_of_pericenter": 42.8637,
        "meta_mean_anomaly": 343.7642,
        "meta_ephemeris_type": 0,
        "meta_classification_type": "U",
        "meta_norad_cat_id": 30928,
        "meta_element_set_no": 999,
        "meta_rev_at_epoch": 90289,
        "meta_bstar": 0.0013424906,
        "meta_mean_motion_dot": 9.22e-06,
        "meta_mean_motion_ddot": 0,
        "tle_line1": "1 30928U 99025AZS 25342.24545837  .00000922  00000+0  13425-2 0  9990",
        "tle_line2": "2 30928  98.8831  72.2004 0450609  42.8637 343.7642 13.22232123902898"
      },
      "geometry": {
        "type": "Point",
        "coordinates": [
          -103.55781505251379,
          19.928690892200436
        ]
      }
    },
    {
      "type": "Feature",
      "properties": {
        "norad_id": 30930,
        "name": "FENGYUN 1C DEB",
        "group": "fengyun-1c-debris",
        "lat": -4.512192845535954,
        "lon": 12.501791115099145,
        "alt_km": 809.9771152516978,
        "timestamp": "2025-12-09T09:46:47.925449+00:00",
        "meta_object_name": "FENGYUN 1C DEB",
        "meta_object_id": "1999-025AZU",
        "meta_epoch": "2025-12-07T20:13:16.110912",
        "meta_mean_motion": 14.37375022,
        "meta_eccentricity": 0.01095868,
        "meta_inclination": 98.2155,
        "meta_ra_of_asc_node": 10.3532,
        "meta_arg_of_pericenter": 120.9146,
        "meta_mean_anomaly": 62.4961,
        "meta_ephemeris_type": 0,
        "meta_classification_type": "U",
        "meta_norad_cat_id": 30930,
        "meta_element_set_no": 999,
        "meta_rev_at_epoch": 98261,
        "meta_bstar": 0.00063431611,
        "meta_mean_motion_dot": 1.988e-05,
        "meta_mean_motion_ddot": 0,
        "tle_line1": "1 30930U 99025AZU 25341.84254758  .00001988  00000+0  63432-3 0  9994",
        "tle_line2": "2 30930  98.2155  10.3532 0109586 120.9146  62.4961 14.37375022982611"
      },
      "geometry": {
        "type": "Point",
        "coordinates": [
          12.501791115099145,
          -4.512192845535954
        ]
      }
    },
    {
      "type": "Feature",
      "properties": {
        "norad_id": 30931,
        "name": "FENGYUN 1C DEB",
        "group": "fengyun-1c-debris",
        "lat": -76.19734773249014,
        "lon": 179.80418417510091,
        "alt_km": 955.0435146236186,
        "timestamp": "2025-12-09T09:46:47.925459+00:00",
        "meta_object_name": "FENGYUN 1C DEB",
        "meta_object_id": "1999-025AZV",
        "meta_epoch": "2025-12-08T16:08:31.560000",
        "meta_mean_motion": 14.01502844,
        "meta_eccentricity": 0.00932887,
        "meta_inclination": 99.1718,
        "meta_ra_of_asc_node": 40.1848,
        "meta_arg_of_pericenter": 52.6711,
        "meta_mean_anomaly": 101.5643,
        "meta_ephemeris_type": 0,
        "meta_classification_type": "U",
        "meta_norad_cat_id": 30931,
        "meta_element_set_no": 999,
        "meta_rev_at_epoch": 95868,
        "meta_bstar": 0.00090717708,
        "meta_mean_motion_dot": 1.379e-05,
        "meta_mean_motion_ddot": 0,
        "tle_line1": "1 30931U 99025AZV 25342.67258750  .00001379  00000+0  90718-3 0  9994",
        "tle_line2": "2 30931  99.1718  40.1848 0093288  52.6711 101.5643 14.01502844958685"
      },
      "geometry": {
        "type": "Point",
        "coordinates": [
          179.80418417510091,
          -76.19734773249014
        ]
      }
    }
  ]
}